{
    "links": {
        "self": "http://www.neowsapp.com/rest/v1/neo/3398658?api_key=iIulBulltgU6a56xZRHN4H3l9WmuAYTsLGpBGhQ2"
    },
    "id": "3398658",
    "neo_reference_id": "3398658",
    "name": "(2008 AD)",
    "designation": "2008 AD",
    "nasa_jpl_url": "http://ssd.jpl.nasa.gov/sbdb.cgi?sstr=3398658",
    "absolute_magnitude_h": 20.1,
    "estimated_diameter": {
        "kilometers": {
            "estimated_diameter_min": 0.2538370294,
            "estimated_diameter_max": 0.5675968529
        },
        "meters": {
            "estimated_diameter_min": 253.8370293645,
            "estimated_diameter_max": 567.5968528656
        },
        "miles": {
            "estimated_diameter_min": 0.1577269688,
            "estimated_diameter_max": 0.3526882241
        },
        "feet": {
            "estimated_diameter_min": 832.7986794202,
            "estimated_diameter_max": 1862.1944587557
        }
    },
    "is_potentially_hazardous_asteroid": false,
    "close_approach_data": [
        {
            "close_approach_date": "2008-01-17",
            "close_approach_date_full": "2008-Jan-17 13:41",
            "epoch_date_close_approach": 1200577260000,
            "relative_velocity": {
                "kilometers_per_second": "16.056753147",
                "kilometers_per_hour": "57804.3113292252",
                "miles_per_hour": "35917.35111454"
            },
            "miss_distance": {
                "astronomical": "0.1974204314",
                "lunar": "76.7965478146",
                "kilometers": "29533676.031921118",
                "miles": "18351375.3216547084"
            },
            "orbiting_body": "Earth"
        },
        {
            "close_approach_date": "2010-07-15",
            "close_approach_date_full": "2010-Jul-15 12:18",
            "epoch_date_close_approach": 1279196280000,
            "relative_velocity": {
                "kilometers_per_second": "18.0515530737",
                "kilometers_per_hour": "64985.5910652462",
                "miles_per_hour": "40379.5190705137"
            },
            "miss_distance": {
                "astronomical": "0.1586947019",
                "lunar": "61.7322390391",
                "kilometers": "23740389.384524953",
                "miles": "14751593.9230442314"
            },
            "orbiting_body": "Earth"
        },
        {
            "close_approach_date": "2124-01-15",
            "close_approach_date_full": "2124-Jan-15 16:01",
            "epoch_date_close_approach": 4861008060000,
            "relative_velocity": {
                "kilometers_per_second": "17.8973313426",
                "kilometers_per_hour": "64430.3928333265",
                "miles_per_hour": "40034.5404802411"
            },
            "miss_distance": {
                "astronomical": "0.152682136",
                "lunar": "59.393350904",
                "kilometers": "22840922.33265032",
                "miles": "14192691.013681616"
            },
            "orbiting_body": "Earth"
        },
        {
            "close_approach_date": "2126-07-14",
            "close_approach_date_full": "2126-Jul-14 22:16",
            "epoch_date_close_approach": 4939740960000,
            "relative_velocity": {
                "kilometers_per_second": "17.0341914507",
                "kilometers_per_hour": "61323.0892224732",
                "miles_per_hour": "38103.7828560418"
            },
            "miss_distance": {
                "astronomical": "0.1854642204",
                "lunar": "72.1455817356",
                "kilometers": "27745052.333050548",
                "miles": "17239976.0914436424"
            },
            "orbiting_body": "Earth"
        }
    ],
    "orbital_data": {
        "orbit_id": "15",
        "orbit_determination_date": "2017-04-06 09:04:48",
        "first_observation_date": "2008-01-01",
        "last_observation_date": "2008-01-19",
        "data_arc_in_days": 18,
        "observations_used": 63,
        "orbit_uncertainty": "8",
        "minimum_orbit_intersection": ".105279",
        "jupiter_tisserand_invariant": "3.883",
        "epoch_osculation": "2454476.5",
        "eccentricity": ".6791748847088167",
        "semi_major_axis": "1.706709761794651",
        "inclination": "6.921965968824594",
        "ascending_node_longitude": "224.0967294733033",
        "orbital_period": "814.4003199928527",
        "perihelion_distance": ".547555356096357",
        "perihelion_argument": "338.0450839367841",
        "aphelion_distance": "2.865864167492945",
        "perihelion_time": "2454530.084130112454",
        "mean_anomaly": "336.3135077836748",
        "mean_motion": ".4420430483170235",
        "equinox": "J2000",
        "orbit_class": {
            "orbit_class_type": "APO",
            "orbit_class_description": "Near-Earth asteroid orbits which cross the Earth’s orbit similar to that of 1862 Apollo",
            "orbit_class_range": "a (semi-major axis) > 1.0 AU; q (perihelion) < 1.017 AU"
        }
    },
    "is_sentry_object": false
}